0 FENGYUN 1C DEB
1 29960U 99025KJ  13280.92613700  .00000266  00000-0  16536-3 0  4727
2 29960 098.9688 322.7720 0097446 354.5038 128.9416 14.11010571346473
0 FENGYUN 1C DEB
1 29960U 99025KJ  13282.62750779  .00000334  00000-0  20180-3 0  4731
2 29960 098.9686 324.4710 0097360 349.6934 131.3112 14.11012112346715
0 FENGYUN 1C DEB
1 29960U 99025KJ  13286.08856999  .00000514  00000-0  29784-3 0  4757
2 29960 098.9679 327.9273 0097204 339.8878 072.3446 14.11014113347206
0 FENGYUN 1C DEB
1 29960U 99025KJ  13287.66252171  .00000530  00000-0  30624-3 0  4768
2 29960 098.9676 329.4990 0097140 335.3967 147.5267 14.11016793347421
0 FENGYUN 1C DEB
1 29960U 99025KJ  13289.35203941  .00000392  00000-0  23314-3 0  4772
2 29960 098.9672 331.1861 0097098 330.5931 089.7469 14.11020301347661
0 FENGYUN 1C DEB
1 29960U 99025KJ  13290.64052325  .00000409  00000-0  24169-3 0  4783
2 29960 098.9669 332.4728 0097078 326.9319 154.8531 14.11021453347843
0 FENGYUN 1C DEB
1 29960U 99025KJ  13291.91755907  .00000464  00000-0  27103-3 0  4793
2 29960 098.9668 333.7478 0097057 323.3042 161.8169 14.11022142348021
0 FENGYUN 1C DEB
1 29960U 99025KJ  13293.10886514  .00000556  00000-0  32000-3 0  4801
2 29960 098.9668 334.9371 0097040 319.9127 093.3101 14.11022813348191
0 FENGYUN 1C DEB
1 29960U 99025KJ  13294.68286025  .00000663  00000-0  37744-3 0  4816
2 29960 098.9668 336.5087 0097014 315.4352 168.7560 14.11024249348411
